[{"OBJECT_NAME":"INMARSAT 4-F2 (SOUTHPAN/PRN 122)","OBJECT_ID":"2005-044A","EPOCH":"2026-03-15T05:43:43.500288","MEAN_MOTION":1.0027668,"ECCENTRICITY":0.00027872,"INCLINATION":4.9707,"RA_OF_ASC_NODE":43.7891,"ARG_OF_PERICENTER":343.8859,"MEAN_ANOMALY":14.5994,"EPHEMERIS_TYPE":0,"CLASSIFICATION_TYPE":"U","NORAD_CAT_ID":28899,"ELEMENT_SET_NO":999,"REV_AT_EPOCH":7457,"BSTAR":0,"MEAN_MOTION_DOT":-2.57e-6,"MEAN_MOTION_DDOT":0},{"OBJECT_NAME":"GSAT-8 (GAGAN/PRN 127)","OBJECT_ID":"2011-022A","EPOCH":"2026-03-15T05:18:30.917952","MEAN_MOTION":1.0027062,"ECCENTRICITY":0.00069586,"INCLINATION":1.8865,"RA_OF_ASC_NODE":83.0033,"ARG_OF_PERICENTER":216.8111,"MEAN_ANOMALY":7.7004,"EPHEMERIS_TYPE":0,"CLASSIFICATION_TYPE":"U","NORAD_CAT_ID":37605,"ELEMENT_SET_NO":999,"REV_AT_EPOCH":5227,"BSTAR":0,"MEAN_MOTION_DOT":8.5e-7,"MEAN_MOTION_DDOT":0},{"OBJECT_NAME":"LUCH 5A (SDCM/PRN 140)","OBJECT_ID":"2011-074B","EPOCH":"2026-03-15T05:50:35.342304","MEAN_MOTION":1.00268919,"ECCENTRICITY":0.00033799,"INCLINATION":8.5139,"RA_OF_ASC_NODE":75.1828,"ARG_OF_PERICENTER":262.702,"MEAN_ANOMALY":89.7018,"EPHEMERIS_TYPE":0,"CLASSIFICATION_TYPE":"U","NORAD_CAT_ID":37951,"ELEMENT_SET_NO":999,"REV_AT_EPOCH":5210,"BSTAR":0,"MEAN_MOTION_DOT":-4.5e-7,"MEAN_MOTION_DDOT":0},{"OBJECT_NAME":"SES-5 (EGNOS/PRN 136)","OBJECT_ID":"2012-036A","EPOCH":"2026-03-15T06:46:52.444416","MEAN_MOTION":1.00271747,"ECCENTRICITY":0.00017933,"INCLINATION":0.0644,"RA_OF_ASC_NODE":306.6859,"ARG_OF_PERICENTER":47.2719,"MEAN_ANOMALY":285.6198,"EPHEMERIS_TYPE":0,"CLASSIFICATION_TYPE":"U","NORAD_CAT_ID":38652,"ELEMENT_SET_NO":999,"REV_AT_EPOCH":4351,"BSTAR":0,"MEAN_MOTION_DOT":3.3e-7,"MEAN_MOTION_DDOT":0},{"OBJECT_NAME":"GSAT-10 (GAGAN/PRN 128)","OBJECT_ID":"2012-051B","EPOCH":"2026-03-15T03:43:47.501760","MEAN_MOTION":1.00272292,"ECCENTRICITY":0.00051058,"INCLINATION":0.0481,"RA_OF_ASC_NODE":255.1358,"ARG_OF_PERICENTER":185.3805,"MEAN_ANOMALY":231.1995,"EPHEMERIS_TYPE":0,"CLASSIFICATION_TYPE":"U","NORAD_CAT_ID":38779,"ELEMENT_SET_NO":999,"REV_AT_EPOCH":4915,"BSTAR":0,"MEAN_MOTION_DOT":-1.66e-6,"MEAN_MOTION_DDOT":0},{"OBJECT_NAME":"LUCH 5B (SDCM/PRN 125)","OBJECT_ID":"2012-061A","EPOCH":"2026-03-15T04:58:10.367616","MEAN_MOTION":1.00271883,"ECCENTRICITY":0.00031861,"INCLINATION":10.2806,"RA_OF_ASC_NODE":50.7953,"ARG_OF_PERICENTER":227.4035,"MEAN_ANOMALY":312.8377,"EPHEMERIS_TYPE":0,"CLASSIFICATION_TYPE":"U","NORAD_CAT_ID":38977,"ELEMENT_SET_NO":999,"REV_AT_EPOCH":4866,"BSTAR":0,"MEAN_MOTION_DOT":-1.32e-6,"MEAN_MOTION_DDOT":0},{"OBJECT_NAME":"ASTRA 5B (EGNOS/PRN 123)","OBJECT_ID":"2014-011B","EPOCH":"2026-03-15T03:13:38.540640","MEAN_MOTION":1.00269723,"ECCENTRICITY":0.00037882,"INCLINATION":0.0952,"RA_OF_ASC_NODE":297.1875,"ARG_OF_PERICENTER":38.2302,"MEAN_ANOMALY":269.2327,"EPHEMERIS_TYPE":0,"CLASSIFICATION_TYPE":"U","NORAD_CAT_ID":39617,"ELEMENT_SET_NO":999,"REV_AT_EPOCH":4372,"BSTAR":0,"MEAN_MOTION_DOT":1.36e-6,"MEAN_MOTION_DDOT":0},{"OBJECT_NAME":"LUCH 5V (SDCM/PRN 141)","OBJECT_ID":"2014-023A","EPOCH":"2026-03-15T00:21:44.378208","MEAN_MOTION":1.00268683,"ECCENTRICITY":0.000316,"INCLINATION":4.8999,"RA_OF_ASC_NODE":70.6618,"ARG_OF_PERICENTER":298.3392,"MEAN_ANOMALY":263.7293,"EPHEMERIS_TYPE":0,"CLASSIFICATION_TYPE":"U","NORAD_CAT_ID":39727,"ELEMENT_SET_NO":999,"REV_AT_EPOCH":4341,"BSTAR":0,"MEAN_MOTION_DOT":-2.66e-6,"MEAN_MOTION_DDOT":0},{"OBJECT_NAME":"GSAT-15 (GAGAN/PRN 139)","OBJECT_ID":"2015-065A","EPOCH":"2026-03-15T02:04:04.564416","MEAN_MOTION":1.00271405,"ECCENTRICITY":0.00015688,"INCLINATION":0.0651,"RA_OF_ASC_NODE":269.1503,"ARG_OF_PERICENTER":126.8549,"MEAN_ANOMALY":261.2054,"EPHEMERIS_TYPE":0,"CLASSIFICATION_TYPE":"U","NORAD_CAT_ID":41028,"ELEMENT_SET_NO":999,"REV_AT_EPOCH":3785,"BSTAR":0,"MEAN_MOTION_DOT":-2.59e-6,"MEAN_MOTION_DDOT":0},{"OBJECT_NAME":"EUTELSAT 117 WEST B (WAAS/PRN 131)","OBJECT_ID":"2016-038B","EPOCH":"2026-03-14T07:16:38.506080","MEAN_MOTION":1.00272184,"ECCENTRICITY":2.59e-5,"INCLINATION":0.0416,"RA_OF_ASC_NODE":6.7202,"ARG_OF_PERICENTER":285.2785,"MEAN_ANOMALY":232.0791,"EPHEMERIS_TYPE":0,"CLASSIFICATION_TYPE":"U","NORAD_CAT_ID":41589,"ELEMENT_SET_NO":999,"REV_AT_EPOCH":3571,"BSTAR":0,"MEAN_MOTION_DOT":-1.2e-7,"MEAN_MOTION_DDOT":0},{"OBJECT_NAME":"SES-15 (WAAS/PRN 133)","OBJECT_ID":"2017-026A","EPOCH":"2026-03-12T14:49:13.423008","MEAN_MOTION":1.00270524,"ECCENTRICITY":7.066e-5,"INCLINATION":0.0388,"RA_OF_ASC_NODE":330.9168,"ARG_OF_PERICENTER":38.8107,"MEAN_ANOMALY":253.6487,"EPHEMERIS_TYPE":0,"CLASSIFICATION_TYPE":"U","NORAD_CAT_ID":42709,"ELEMENT_SET_NO":999,"REV_AT_EPOCH":646,"BSTAR":0,"MEAN_MOTION_DOT":6.0e-7,"MEAN_MOTION_DDOT":0},{"OBJECT_NAME":"QZS-2 (QZSS/PRN 194)","OBJECT_ID":"2017-028A","EPOCH":"2026-03-14T08:14:39.132672","MEAN_MOTION":1.0025939,"ECCENTRICITY":0.07444661,"INCLINATION":39.5754,"RA_OF_ASC_NODE":244.534,"ARG_OF_PERICENTER":270.4251,"MEAN_ANOMALY":281.8153,"EPHEMERIS_TYPE":0,"CLASSIFICATION_TYPE":"U","NORAD_CAT_ID":42738,"ELEMENT_SET_NO":999,"REV_AT_EPOCH":667,"BSTAR":0,"MEAN_MOTION_DOT":-1.34e-6,"MEAN_MOTION_DDOT":0},{"OBJECT_NAME":"QZS-3 (QZSS/PRN 199)","OBJECT_ID":"2017-048A","EPOCH":"2026-03-15T05:39:06.443136","MEAN_MOTION":1.00270723,"ECCENTRICITY":0.00023238,"INCLINATION":0.0562,"RA_OF_ASC_NODE":195.7613,"ARG_OF_PERICENTER":176.2884,"MEAN_ANOMALY":12.6046,"EPHEMERIS_TYPE":0,"CLASSIFICATION_TYPE":"U","NORAD_CAT_ID":42917,"ELEMENT_SET_NO":999,"REV_AT_EPOCH":3131,"BSTAR":0,"MEAN_MOTION_DOT":-3.49e-6,"MEAN_MOTION_DDOT":0},{"OBJECT_NAME":"QZS-4 (QZSS/PRN 195)","OBJECT_ID":"2017-062A","EPOCH":"2026-03-14T14:45:38.713824","MEAN_MOTION":1.00278286,"ECCENTRICITY":0.07479988,"INCLINATION":40.1666,"RA_OF_ASC_NODE":344.6945,"ARG_OF_PERICENTER":270.034,"MEAN_ANOMALY":279.5094,"EPHEMERIS_TYPE":0,"CLASSIFICATION_TYPE":"U","NORAD_CAT_ID":42965,"ELEMENT_SET_NO":999,"REV_AT_EPOCH":3085,"BSTAR":0,"MEAN_MOTION_DOT":-2.95e-6,"MEAN_MOTION_DDOT":0},{"OBJECT_NAME":"BEIDOU-3 G1 (PRN 130)","OBJECT_ID":"2018-085A","EPOCH":"2026-03-13T07:30:13.029120","MEAN_MOTION":1.00265903,"ECCENTRICITY":0.00020953,"INCLINATION":2.8312,"RA_OF_ASC_NODE":100.0786,"ARG_OF_PERICENTER":8.4898,"MEAN_ANOMALY":314.822,"EPHEMERIS_TYPE":0,"CLASSIFICATION_TYPE":"U","NORAD_CAT_ID":43683,"ELEMENT_SET_NO":999,"REV_AT_EPOCH":2709,"BSTAR":0,"MEAN_MOTION_DOT":-2.79e-6,"MEAN_MOTION_DDOT":0},{"OBJECT_NAME":"EUTELSAT 5 WEST B (EGNOS/PRN 121)","OBJECT_ID":"2019-067A","EPOCH":"2026-03-15T05:01:25.057056","MEAN_MOTION":1.002717,"ECCENTRICITY":0.00031825,"INCLINATION":0.0783,"RA_OF_ASC_NODE":324.8861,"ARG_OF_PERICENTER":40.328,"MEAN_ANOMALY":237.9446,"EPHEMERIS_TYPE":0,"CLASSIFICATION_TYPE":"U","NORAD_CAT_ID":44624,"ELEMENT_SET_NO":999,"REV_AT_EPOCH":2349,"BSTAR":0,"MEAN_MOTION_DOT":-4.3e-7,"MEAN_MOTION_DDOT":0},{"OBJECT_NAME":"BEIDOU-3 G2 (PRN 144)","OBJECT_ID":"2020-017A","EPOCH":"2026-03-15T03:42:55.084608","MEAN_MOTION":1.00272327,"ECCENTRICITY":0.00027417,"INCLINATION":2.6744,"RA_OF_ASC_NODE":45.755,"ARG_OF_PERICENTER":323.6454,"MEAN_ANOMALY":299.1401,"EPHEMERIS_TYPE":0,"CLASSIFICATION_TYPE":"U","NORAD_CAT_ID":45344,"ELEMENT_SET_NO":999,"REV_AT_EPOCH":2231,"BSTAR":0,"MEAN_MOTION_DOT":-1.39e-6,"MEAN_MOTION_DDOT":0}]
